{
  "type": "FeatureCollection",
  "features": [
    {
      "type": "Feature",
      "properties": {
        "norad_id": 31307,
        "name": "GALAXY 17 (G-17)",
        "group": "intelsat",
        "lat": -0.6421220523806485,
        "lon": 66.9253420194609,
        "alt_km": 35809.1903660871,
        "timestamp": "2025-12-22T04:03:38.829441+00:00",
        "meta_object_name": "GALAXY 17 (G-17)",
        "meta_object_id": "2007-016B",
        "meta_epoch": "2025-12-21T14:30:17.743392",
        "meta_mean_motion": 1.00270105,
        "meta_eccentricity": 0.0005345,
        "meta_inclination": 2.5208,
        "meta_ra_of_asc_node": 82.1857,
        "meta_arg_of_pericenter": 170.3657,
        "meta_mean_anomaly": 330.468,
        "meta_ephemeris_type": 0,
        "meta_classification_type": "U",
        "meta_norad_cat_id": 31307,
        "meta_element_set_no": 999,
        "meta_rev_at_epoch": 6802,
        "meta_bstar": 0,
        "meta_mean_motion_dot": -1.85e-06,
        "meta_mean_motion_ddot": 0,
        "tle_line1": "1 31307U 07016B   25355.60437203 -.00000185  00000+0  00000+0 0  9996",
        "tle_line2": "2 31307   2.5208  82.1857 0005345 170.3657 330.4680  1.00270105 68026"
      },
      "geometry": {
        "type": "Point",
        "coordinates": [
          66.9253420194609,
          -0.6421220523806485
        ]
      }
    },
    {
      "type": "Feature",
      "properties": {
        "norad_id": 31862,
        "name": "DIRECTV 10",
        "group": "intelsat",
        "lat": 0.003169724132015518,
        "lon": 49.08315408819754,
        "alt_km": 35786.722496314556,
        "timestamp": "2025-12-22T04:03:38.829453+00:00",
        "meta_object_name": "DIRECTV 10",
        "meta_object_id": "2007-032A",
        "meta_epoch": "2025-12-21T16:08:00.885408",
        "meta_mean_motion": 1.00272363,
        "meta_eccentricity": 2.03e-05,
        "meta_inclination": 0.0084,
        "meta_ra_of_asc_node": 101.8858,
        "meta_arg_of_pericenter": 105.8192,
        "meta_mean_anomaly": 21.9876,
        "meta_ephemeris_type": 0,
        "meta_classification_type": "U",
        "meta_norad_cat_id": 31862,
        "meta_element_set_no": 999,
        "meta_rev_at_epoch": 4381,
        "meta_bstar": 0,
        "meta_mean_motion_dot": -8.1e-07,
        "meta_mean_motion_ddot": 0,
        "tle_line1": "1 31862U 07032A   25355.67223247 -.00000081  00000+0  00000+0 0  9993",
        "tle_line2": "2 31862   0.0084 101.8858 0000203 105.8192  21.9876  1.00272363 43819"
      },
      "geometry": {
        "type": "Point",
        "coordinates": [
          49.08315408819754,
          0.003169724132015518
        ]
      }
    },
    {
      "type": "Feature",
      "properties": {
        "norad_id": 32253,
        "name": "INTELSAT 11 (IS-11)",
        "group": "intelsat",
        "lat": -3.016849438044164,
        "lon": -23.809340509938,
        "alt_km": 36128.94243209276,
        "timestamp": "2025-12-22T04:03:38.829464+00:00",
        "meta_object_name": "INTELSAT 11 (IS-11)",
        "meta_object_id": "2007-044B",
        "meta_epoch": "2025-12-21T17:30:22.998240",
        "meta_mean_motion": 0.99052572,
        "meta_eccentricity": 0.0008538,
        "meta_inclination": 3.1021,
        "meta_ra_of_asc_node": 80.8774,
        "meta_arg_of_pericenter": 169.4632,
        "meta_mean_anomaly": 288.9565,
        "meta_ephemeris_type": 0,
        "meta_classification_type": "U",
        "meta_norad_cat_id": 32253,
        "meta_element_set_no": 999,
        "meta_rev_at_epoch": 6669,
        "meta_bstar": 0,
        "meta_mean_motion_dot": -9.7e-07,
        "meta_mean_motion_ddot": 0,
        "tle_line1": "1 32253U 07044B   25355.72943285 -.00000097  00000+0  00000+0 0  9995",
        "tle_line2": "2 32253   3.1021  80.8774 0008538 169.4632 288.9565  0.99052572 66692"
      },
      "geometry": {
        "type": "Point",
        "coordinates": [
          -23.809340509938,
          -3.016849438044164
        ]
      }
    },
    {
      "type": "Feature",
      "properties": {
        "norad_id": 32388,
        "name": "HORIZONS-2",
        "group": "intelsat",
        "lat": -0.15294450072781055,
        "lon": 78.11976986821222,
        "alt_km": 35804.773945541885,
        "timestamp": "2025-12-22T04:03:38.829476+00:00",
        "meta_object_name": "HORIZONS-2",
        "meta_object_id": "2007-063B",
        "meta_epoch": "2025-12-21T13:04:20.930016",
        "meta_mean_motion": 1.00271247,
        "meta_eccentricity": 0.0004613,
        "meta_inclination": 2.1431,
        "meta_ra_of_asc_node": 82.8666,
        "meta_arg_of_pericenter": 194.5159,
        "meta_mean_anomaly": 295.2836,
        "meta_ephemeris_type": 0,
        "meta_classification_type": "U",
        "meta_norad_cat_id": 32388,
        "meta_element_set_no": 999,
        "meta_rev_at_epoch": 6603,
        "meta_bstar": 0,
        "meta_mean_motion_dot": -2.32e-06,
        "meta_mean_motion_ddot": 0,
        "tle_line1": "1 32388U 07063B   25355.54468669 -.00000232  00000+0  00000+0 0  9994",
        "tle_line2": "2 32388   2.1431  82.8666 0004613 194.5159 295.2836  1.00271247 66035"
      },
      "geometry": {
        "type": "Point",
        "coordinates": [
          78.11976986821222,
          -0.15294450072781055
        ]
      }
    },
    {
      "type": "Feature",
      "properties": {
        "norad_id": 32729,
        "name": "DIRECTV 11",
        "group": "intelsat",
        "lat": 0.020038750233007583,
        "lon": 52.67303305445358,
        "alt_km": 35789.010475482566,
        "timestamp": "2025-12-22T04:03:38.829487+00:00",
        "meta_object_name": "DIRECTV 11",
        "meta_object_id": "2008-013A",
        "meta_epoch": "2025-12-21T16:09:00.789120",
        "meta_mean_motion": 1.00267418,
        "meta_eccentricity": 8.57e-05,
        "meta_inclination": 0.0458,
        "meta_ra_of_asc_node": 200.3144,
        "meta_arg_of_pericenter": 330.5483,
        "meta_mean_anomaly": 62.6867,
        "meta_ephemeris_type": 0,
        "meta_classification_type": "U",
        "meta_norad_cat_id": 32729,
        "meta_element_set_no": 999,
        "meta_rev_at_epoch": 4381,
        "meta_bstar": 0,
        "meta_mean_motion_dot": -1.03e-06,
        "meta_mean_motion_ddot": 0,
        "tle_line1": "1 32729U 08013A   25355.67292580 -.00000103  00000+0  00000+0 0  9997",
        "tle_line2": "2 32729   0.0458 200.3144 0000857 330.5483  62.6867  1.00267418 43812"
      },
      "geometry": {
        "type": "Point",
        "coordinates": [
          52.67303305445358,
          0.020038750233007583
        ]
      }
    },
    {
      "type": "Feature",
      "properties": {
        "norad_id": 32951,
        "name": "GALAXY 18 (G-18)",
        "group": "intelsat",
        "lat": -0.0047199979447299,
        "lon": 28.899848998173965,
        "alt_km": 35790.96473773899,
        "timestamp": "2025-12-22T04:03:38.829498+00:00",
        "meta_object_name": "GALAXY 18 (G-18)",
        "meta_object_id": "2008-024A",
        "meta_epoch": "2025-12-21T08:40:28.062624",
        "meta_mean_motion": 1.00271198,
        "meta_eccentricity": 0.00028473,
        "meta_inclination": 0.0183,
        "meta_ra_of_asc_node": 61.6385,
        "meta_arg_of_pericenter": 214.0045,
        "meta_mean_anomaly": 181.6446,
        "meta_ephemeris_type": 0,
        "meta_classification_type": "U",
        "meta_norad_cat_id": 32951,
        "meta_element_set_no": 999,
        "meta_rev_at_epoch": 4407,
        "meta_bstar": 0,
        "meta_mean_motion_dot": 4.8e-07,
        "meta_mean_motion_ddot": 0,
        "tle_line1": "1 32951U 08024A   25355.36143591  .00000048  00000+0  00000+0 0  9996",
        "tle_line2": "2 32951   0.0183  61.6385 0002847 214.0045 181.6446  1.00271198 44074"
      },
      "geometry": {
        "type": "Point",
        "coordinates": [
          28.899848998173965,
          -0.0047199979447299
        ]
      }
    },
    {
      "type": "Feature",
      "properties": {
        "norad_id": 33153,
        "name": "INTELSAT 25 (IS-25)",
        "group": "intelsat",
        "lat": 1.4032209238250846,
        "lon": 120.3275453018894,
        "alt_km": 35802.74876390098,
        "timestamp": "2025-12-22T04:03:38.829510+00:00",
        "meta_object_name": "INTELSAT 25 (IS-25)",
        "meta_object_id": "2008-034A",
        "meta_epoch": "2025-12-21T18:11:05.025984",
        "meta_mean_motion": 1.00273075,
        "meta_eccentricity": 0.0004784,
        "meta_inclination": 2.2495,
        "meta_ra_of_asc_node": 82.5539,
        "meta_arg_of_pericenter": 185.6657,
        "meta_mean_anomaly": 63.6158,
        "meta_ephemeris_type": 0,
        "meta_classification_type": "U",
        "meta_norad_cat_id": 33153,
        "meta_element_set_no": 999,
        "meta_rev_at_epoch": 6391,
        "meta_bstar": 0,
        "meta_mean_motion_dot": -2.03e-06,
        "meta_mean_motion_ddot": 0,
        "tle_line1": "1 33153U 08034A   25355.75769706 -.00000203  00000+0  00000+0 0  9991",
        "tle_line2": "2 33153   2.2495  82.5539 0004784 185.6657  63.6158  1.00273075 63915"
      },
      "geometry": {
        "type": "Point",
        "coordinates": [
          120.3275453018894,
          1.4032209238250846
        ]
      }
    }
  ]
}